STARLINK-36538          
1 67512U 26012V   26019.01773773 -.00002725  86142-5  00000+0 0  9997
2 67512  43.0100 248.3700 0007700 319.9700  13.3500 16.05267929    18
STARLINK-36531          
1 67513U 26012W   26019.01773773 -.00002725  86142-5  00000+0 0  9998
2 67513  43.0100 248.3700 0007700 319.9700  13.3500 16.05267929    19
STARLINK-36530          
1 67514U 26012X   26019.01773773 -.00002725  86142-5  00000+0 0  9999
2 67514  43.0100 248.3700 0007700 319.9700  13.3500 16.05267929    10
STARLINK-36543          
1 67515U 26012Y   26019.01773773 -.00002725  86142-5  00000+0 0  9990
2 67515  43.0100 248.3700 0007700 319.9700  13.3500 16.05267929    11
STARLINK-36537          
1 67516U 26012Z   26019.01773773 -.00002725  86142-5  00000+0 0  9991
2 67516  43.0100 248.3700 0007700 319.9700  13.3500 16.05267929    12
STARLINK-36544          
1 67517U 26012AA  26019.01773773 -.00002725  86142-5  00000+0 0  9992
2 67517  43.0100 248.3700 0007700 319.9700  13.3500 16.05267929    13
STARLINK-36412          
1 67518U 26012AB  26019.01773773 -.00002725  86142-5  00000+0 0  9993
2 67518  43.0100 248.3700 0007700 319.9700  13.3500 16.05267929    14
STARLINK-36415          
1 67519U 26012AC  26019.01773773 -.00002725  86142-5  00000+0 0  9994
2 67519  43.0100 248.3700 0007700 319.9700  13.3500 16.05267929    15
STARLINK-36547          
1 67520U 26012AD  26019.01773773 -.00002725  86142-5  00000+0 0  9996
2 67520  43.0100 248.3700 0007700 319.9700  13.3500 16.05267929    17
STARLINK-36444          
1 67521U 26012AE  26019.01773773 -.00002725  86142-5  00000+0 0  9997
2 67521  43.0100 248.3700 0007700 319.9700  13.3500 16.05267929    18
HULIANWANG DIGUI-146    
1 67522U 26013A   26025.16112978  .00000171  00000+0  22614-3 0  9990
2 67522  50.0076 161.6326 0011563 254.8743 105.0879 13.97472598   821
HULIANWANG DIGUI-147    
1 67523U 26013B   26021.72840118 -.00000136  00000+0  93300-5 0  9997
2 67523  49.9994 175.4584 0015328 243.7764 116.1562 13.97588994   347
